1 08820U 76039A   03312.80311362 -.00000012  00000-0  10000-3 0  9758
2 08820 109.8277 231.0988 0044452 270.4993  89.0506  6.38664623386298
